SENTINEL-6              
1 46984U 20086A   23257.53053693 -.00000058  00000+0  13489-4 0  9992
2 46984  66.0411  65.8871 0007847 268.2437  91.7679 12.80929804131393
